[
  {
    "OBJECT_NAME": "FENGYUN 3E",
    "OBJECT_ID": "2021-062A",
    "EPOCH": "2025-05-24T18:44:50.997984",
    "MEAN_MOTION": 14.19864971,
    "ECCENTRICITY": 0.0002616,
    "INCLINATION": 98.7419,
    "RA_OF_ASC_NODE": 147.7021,
    "ARG_OF_PERICENTER": 112.3133,
    "MEAN_ANOMALY": 247.832,
    "EPHEMERIS_TYPE": 0,
    "CLASSIFICATION_TYPE": "U",
    "NORAD_CAT_ID": 49008,
    "ELEMENT_SET_NO": 999,
    "REV_AT_EPOCH": 20146,
    "BSTAR": 1.843e-05,
    "MEAN_MOTION_DOT": -5e-08,
    "MEAN_MOTION_DDOT": 0
  },
  {
    "OBJECT_NAME": "GOES 18",
    "OBJECT_ID": "2022-021A",
    "EPOCH": "2025-05-24T12:08:38.605632",
    "MEAN_MOTION": 1.00271086,
    "ECCENTRICITY": 3.03e-05,
    "INCLINATION": 0.0057,
    "RA_OF_ASC_NODE": 192.1793,
    "ARG_OF_PERICENTER": 353.1106,
    "MEAN_ANOMALY": 102.2237,
    "EPHEMERIS_TYPE": 0,
    "CLASSIFICATION_TYPE": "U",
    "NORAD_CAT_ID": 51850,
    "ELEMENT_SET_NO": 999,
    "REV_AT_EPOCH": 1190,
    "BSTAR": 0,
    "MEAN_MOTION_DOT": 1.06e-06,
    "MEAN_MOTION_DDOT": 0
  },
  {
    "OBJECT_NAME": "NOAA 21 (JPSS-2)",
    "OBJECT_ID": "2022-150A",
    "EPOCH": "2025-05-24T19:19:01.258752",
    "MEAN_MOTION": 14.19533831,
    "ECCENTRICITY": 0.0001128,
    "INCLINATION": 98.7268,
    "RA_OF_ASC_NODE": 83.9068,
    "ARG_OF_PERICENTER": 173.3745,
    "MEAN_ANOMALY": 186.7446,
    "EPHEMERIS_TYPE": 0,
    "CLASSIFICATION_TYPE": "U",
    "NORAD_CAT_ID": 54234,
    "ELEMENT_SET_NO": 999,
    "REV_AT_EPOCH": 13144,
    "BSTAR": 4.6999e-05,
    "MEAN_MOTION_DOT": 5.5e-07,
    "MEAN_MOTION_DDOT": 0
  },
  {
    "OBJECT_NAME": "METEOSAT-12 (MTG-I1)",
    "OBJECT_ID": "2022-170C",
    "EPOCH": "2025-05-24T10:04:38.629056",
    "MEAN_MOTION": 1.00268681,
    "ECCENTRICITY": 9.33e-05,
    "INCLINATION": 0.6329,
    "RA_OF_ASC_NODE": 30.5107,
    "ARG_OF_PERICENTER": 41.9197,
    "MEAN_ANOMALY": 320.7185,
    "EPHEMERIS_TYPE": 0,
    "CLASSIFICATION_TYPE": "U",
    "NORAD_CAT_ID": 54743,
    "ELEMENT_SET_NO": 999,
    "REV_AT_EPOCH": 907,
    "BSTAR": 0,
    "MEAN_MOTION_DOT": 2e-08,
    "MEAN_MOTION_DDOT": 0
  },
  {
    "OBJECT_NAME": "TIANMU-1 03",
    "OBJECT_ID": "2023-039A",
    "EPOCH": "2025-05-24T20:33:09.114336",
    "MEAN_MOTION": 15.34929745,
    "ECCENTRICITY": 0.0004994,
    "INCLINATION": 97.4986,
    "RA_OF_ASC_NODE": 303.1317,
    "ARG_OF_PERICENTER": 68.655,
    "MEAN_ANOMALY": 291.5225,
    "EPHEMERIS_TYPE": 0,
    "CLASSIFICATION_TYPE": "U",
    "NORAD_CAT_ID": 55973,
    "ELEMENT_SET_NO": 999,
    "REV_AT_EPOCH": 12104,
    "BSTAR": 0.00027463,
    "MEAN_MOTION_DOT": 9.226e-05,
    "MEAN_MOTION_DDOT": 0
  },
  {
    "OBJECT_NAME": "TIANMU-1 04",
    "OBJECT_ID": "2023-039B",
    "EPOCH": "2025-05-24T20:54:42.197472",
    "MEAN_MOTION": 15.35160089,
    "ECCENTRICITY": 0.0005672,
    "INCLINATION": 97.4915,
    "RA_OF_ASC_NODE": 302.4458,
    "ARG_OF_PERICENTER": 63.083,
    "MEAN_ANOMALY": 297.0992,
    "EPHEMERIS_TYPE": 0,
    "CLASSIFICATION_TYPE": "U",
    "NORAD_CAT_ID": 55974,
    "ELEMENT_SET_NO": 999,
    "REV_AT_EPOCH": 12104,
    "BSTAR": 0.00027313,
    "MEAN_MOTION_DOT": 9.244e-05,
    "MEAN_MOTION_DDOT": 0
  },
  {
    "OBJECT_NAME": "TIANMU-1 05",
    "OBJECT_ID": "2023-039C",
    "EPOCH": "2025-05-24T19:49:11.946144",
    "MEAN_MOTION": 15.34904856,
    "ECCENTRICITY": 0.0004943,
    "INCLINATION": 97.4961,
    "RA_OF_ASC_NODE": 302.8582,
    "ARG_OF_PERICENTER": 85.9098,
    "MEAN_ANOMALY": 274.271,
    "EPHEMERIS_TYPE": 0,
    "CLASSIFICATION_TYPE": "U",
    "NORAD_CAT_ID": 55975,
    "ELEMENT_SET_NO": 999,
    "REV_AT_EPOCH": 12102,
    "BSTAR": 0.00027054,
    "MEAN_MOTION_DOT": 9.08e-05,
    "MEAN_MOTION_DDOT": 0
  },
  {
    "OBJECT_NAME": "TIANMU-1 06",
    "OBJECT_ID": "2023-039D",
    "EPOCH": "2025-05-24T21:11:09.291552",
    "MEAN_MOTION": 15.35240092,
    "ECCENTRICITY": 0.0005375,
    "INCLINATION": 97.4974,
    "RA_OF_ASC_NODE": 303.2308,
    "ARG_OF_PERICENTER": 80.7737,
    "MEAN_ANOMALY": 279.4114,
    "EPHEMERIS_TYPE": 0,
    "CLASSIFICATION_TYPE": "U",
    "NORAD_CAT_ID": 55976,
    "ELEMENT_SET_NO": 999,
    "REV_AT_EPOCH": 12104,
    "BSTAR": 0.00027292,
    "MEAN_MOTION_DOT": 9.26e-05,
    "MEAN_MOTION_DDOT": 0
  },
  {
    "OBJECT_NAME": "METEOR-M2 3",
    "OBJECT_ID": "2023-091A",
    "EPOCH": "2025-05-24T19:45:05.744160",
    "MEAN_MOTION": 14.23998605,
    "ECCENTRICITY": 0.0003417,
    "INCLINATION": 98.662,
    "RA_OF_ASC_NODE": 201.5424,
    "ARG_OF_PERICENTER": 203.1812,
    "MEAN_ANOMALY": 156.9213,
    "EPHEMERIS_TYPE": 0,
    "CLASSIFICATION_TYPE": "U",
    "NORAD_CAT_ID": 57166,
    "ELEMENT_SET_NO": 999,
    "REV_AT_EPOCH": 9924,
    "BSTAR": 2.0652e-05,
    "MEAN_MOTION_DOT": 4e-08,
    "MEAN_MOTION_DDOT": 0
  },
  {
    "OBJECT_NAME": "TIANMU-1 07",
    "OBJECT_ID": "2023-101A",
    "EPOCH": "2025-05-24T20:37:18.821568",
    "MEAN_MOTION": 15.24911007,
    "ECCENTRICITY": 0.0005994,
    "INCLINATION": 97.3123,
    "RA_OF_ASC_NODE": 199.3022,
    "ARG_OF_PERICENTER": 80.1712,
    "MEAN_ANOMALY": 280.0203,
    "EPHEMERIS_TYPE": 0,
    "CLASSIFICATION_TYPE": "U",
    "NORAD_CAT_ID": 57399,
    "ELEMENT_SET_NO": 999,
    "REV_AT_EPOCH": 10236,
    "BSTAR": 0.00019844,
    "MEAN_MOTION_DOT": 4.87e-05,
    "MEAN_MOTION_DDOT": 0
  },
  {
    "OBJECT_NAME": "TIANMU-1 08",
    "OBJECT_ID": "2023-101B",
    "EPOCH": "2025-05-24T21:23:13.559424",
    "MEAN_MOTION": 15.24915755,
    "ECCENTRICITY": 0.0008093,
    "INCLINATION": 97.3111,
    "RA_OF_ASC_NODE": 199.1634,
    "ARG_OF_PERICENTER": 81.3957,
    "MEAN_ANOMALY": 278.8197,
    "EPHEMERIS_TYPE": 0,
    "CLASSIFICATION_TYPE": "U",
    "NORAD_CAT_ID": 57400,
    "ELEMENT_SET_NO": 999,
    "REV_AT_EPOCH": 10236,
    "BSTAR": 0.00021735,
    "MEAN_MOTION_DOT": 5.344e-05,
    "MEAN_MOTION_DDOT": 0
  },
  {
    "OBJECT_NAME": "TIANMU-1 09",
    "OBJECT_ID": "2023-101C",
    "EPOCH": "2025-05-24T19:24:02.739456",
    "MEAN_MOTION": 15.24844115,
    "ECCENTRICITY": 0.0007249,
    "INCLINATION": 97.3066,
    "RA_OF_ASC_NODE": 198.723,
    "ARG_OF_PERICENTER": 81.9664,
    "MEAN_ANOMALY": 278.2396,
    "EPHEMERIS_TYPE": 0,
    "CLASSIFICATION_TYPE": "U",
    "NORAD_CAT_ID": 57401,
    "ELEMENT_SET_NO": 999,
    "REV_AT_EPOCH": 10235,
    "BSTAR": 0.00021025,
    "MEAN_MOTION_DOT": 5.155e-05,
    "MEAN_MOTION_DDOT": 0
  },
  {
    "OBJECT_NAME": "TIANMU-1 10",
    "OBJECT_ID": "2023-101D",
    "EPOCH": "2025-05-24T20:10:47.554752",
    "MEAN_MOTION": 15.24827149,
    "ECCENTRICITY": 0.0009149,
    "INCLINATION": 97.3148,
    "RA_OF_ASC_NODE": 199.392,
    "ARG_OF_PERICENTER": 80.6522,
    "MEAN_ANOMALY": 279.575,
    "EPHEMERIS_TYPE": 0,
    "CLASSIFICATION_TYPE": "U",
    "NORAD_CAT_ID": 57402,
    "ELEMENT_SET_NO": 999,
    "REV_AT_EPOCH": 10235,
    "BSTAR": 0.00021976,
    "MEAN_MOTION_DOT": 5.45e-05,
    "MEAN_MOTION_DDOT": 5.9762e-09
  },
  {
    "OBJECT_NAME": "FENGYUN 3F",
    "OBJECT_ID": "2023-111A",
    "EPOCH": "2025-05-24T20:18:37.463616",
    "MEAN_MOTION": 14.20041413,
    "ECCENTRICITY": 0.0001449,
    "INCLINATION": 98.7272,
    "RA_OF_ASC_NODE": 216.1207,
    "ARG_OF_PERICENTER": 131.5954,
    "MEAN_ANOMALY": 228.5346,
    "EPHEMERIS_TYPE": 0,
    "CLASSIFICATION_TYPE": "U",
    "NORAD_CAT_ID": 57490,
    "ELEMENT_SET_NO": 999,
    "REV_AT_EPOCH": 9375,
    "BSTAR": 4.2868e-05,
    "MEAN_MOTION_DOT": 4.7e-07,
    "MEAN_MOTION_DDOT": 0
  }
]