FENGYUN 3E              
1 49008U 21062A   25144.78114581 -.00000005  00000+0  18430-4 0  9998
2 49008  98.7419 147.7021 0002616 112.3133 247.8320 14.19864971201461
GOES 18                 
1 51850U 22021A   25144.50600238  .00000106  00000+0  00000+0 0  9991
2 51850   0.0057 192.1793 0000303 353.1106 102.2237  1.00271086 11903
NOAA 21 (JPSS-2)        
1 54234U 22150A   25144.80487568  .00000055  00000+0  46999-4 0  9990
2 54234  98.7268  83.9068 0001128 173.3745 186.7446 14.19533831131443
METEOSAT-12 (MTG-I1)    
1 54743U 22170C   25144.41989154  .00000002  00000+0  00000+0 0  9992
2 54743   0.6329  30.5107 0000933  41.9197 320.7185  1.00268681  9071
TIANMU-1 03             
1 55973U 23039A   25144.85635549  .00009226  00000+0  27463-3 0  9990
2 55973  97.4986 303.1317 0004994  68.6550 291.5225 15.34929745121041
TIANMU-1 04             
1 55974U 23039B   25144.87132173  .00009244  00000+0  27313-3 0  9992
2 55974  97.4915 302.4458 0005672  63.0830 297.0992 15.35160089121047
TIANMU-1 05             
1 55975U 23039C   25144.82583271  .00009080  00000+0  27054-3 0  9997
2 55975  97.4961 302.8582 0004943  85.9098 274.2710 15.34904856121020
TIANMU-1 06             
1 55976U 23039D   25144.88274643  .00009260  00000+0  27292-3 0  9998
2 55976  97.4974 303.2308 0005375  80.7737 279.4114 15.35240092121042
METEOR-M2 3             
1 57166U 23091A   25144.82298315  .00000004  00000+0  20652-4 0  9996
2 57166  98.6620 201.5424 0003417 203.1812 156.9213 14.23998605 99246
TIANMU-1 07             
1 57399U 23101A   25144.85924562  .00004870  00000+0  19844-3 0  9994
2 57399  97.3123 199.3022 0005994  80.1712 280.0203 15.24911007102369
TIANMU-1 08             
1 57400U 23101B   25144.89112916  .00005344  00000+0  21735-3 0  9992
2 57400  97.3111 199.1634 0008093  81.3957 278.8197 15.24915755102364
TIANMU-1 09             
1 57401U 23101C   25144.80836504  .00005155  00000+0  21025-3 0  9992
2 57401  97.3066 198.7230 0007249  81.9664 278.2396 15.24844115102359
TIANMU-1 10             
1 57402U 23101D   25144.84082818  .00005450  59762-8  21976-3 0  9999
2 57402  97.3148 199.3920 0009149  80.6522 279.5750 15.24827149102350
FENGYUN 3F              
1 57490U 23111A   25144.84626694  .00000047  00000+0  42868-4 0  9996
2 57490  98.7272 216.1207 0001449 131.5954 228.5346 14.20041413 93751
